OBJECT_NAME,OBJECT_ID,EPOCH,MEAN_MOTION,ECCENTRICITY,INCLINATION,RA_OF_ASC_NODE,ARG_OF_PERICENTER,MEAN_ANOMALY,EPHEMERIS_TYPE,CLASSIFICATION_TYPE,NORAD_CAT_ID,ELEMENT_SET_NO,REV_AT_EPOCH,BSTAR,MEAN_MOTION_DOT,MEAN_MOTION_DDOT
CENTISPACE-1 S10,2025-007E,2026-06-06T13:21:17.864064,13.80608573,.00132828,54.9898,328.6415,76.6936,283.5501,0,U,62579,999,7326,.81705768E-4,-.54E-6,0
CENTISPACE-1 S11,2025-007F,2026-06-06T13:42:06.966144,13.80608274,.00129907,54.9785,328.2354,78.4885,281.7530,0,U,62580,999,7326,.81598001E-4,-.55E-6,0
CENTISPACE-1 S12,2025-007G,2026-06-06T14:24:06.826464,13.80628453,.0017443,54.9777,328.4113,104.6283,255.6609,0,U,62581,999,7327,.7890288E-4,-.57E-6,0
CENTISPACE-1 S13,2025-007H,2026-06-06T14:03:07.670016,13.80609478,.00129572,54.9818,328.5678,69.0120,291.2222,0,U,62582,999,7326,.81577576E-4,-.55E-6,0
CENTISPACE-1 S14,2025-007J,2026-06-06T13:31:58.714464,13.80605380,.00131727,54.9850,329.7361,75.3751,284.8665,0,U,62583,999,7324,.80846076E-4,-.55E-6,0
CENTISPACE-1 S15,2025-007K,2026-06-06T13:10:29.661024,13.80611722,.00150742,54.9875,329.7678,59.5025,300.7417,0,U,62584,999,7326,.10922073E-3,-.25E-6,0
CENTISPACE-1 S16,2025-007L,2026-06-06T13:00:13.380192,13.80611420,.00140208,54.9890,328.5090,71.3812,288.8666,0,U,62585,999,7324,.10468491E-3,-.3E-6,0
STARLINK-11547 [DTC],2025-008A,2026-06-06T11:06:31.091040,15.70959774,.00016877,42.9988,311.2797,268.4197,91.6478,0,U,62587,999,8007,.20033711E-2,.266357E-2,0
STARLINK-11185 [DTC],2025-008B,2026-06-05T19:05:04.349472,15.70857729,.00017992,42.9997,314.8560,273.1899,86.8763,0,U,62588,999,7997,.87430214E-3,.113364E-2,0
STARLINK-11513 [DTC],2025-008C,2026-06-06T03:13:26.749632,15.70987760,.0001881,42.9976,313.1078,297.7543,62.3134,0,U,62589,999,8002,.26982E-2,.363595E-2,0
STARLINK-11397 [DTC],2025-008D,2026-06-06T14:32:23.684352,15.70795615,.00015232,42.9996,309.7356,222.7079,137.3671,0,U,62590,999,8121,.15086292E-2,.197427E-2,0
STARLINK-11420 [DTC],2025-008E,2026-06-06T10:58:52.790016,15.71381551,.00035074,42.9984,311.2375,296.4988,63.5520,0,U,62591,999,8125,.24501127E-2,.334474E-2,0
STARLINK-11415 [DTC],2025-008F,2026-06-06T14:24:55.972512,15.70862948,.00013398,42.9975,310.5992,275.2176,84.8539,0,U,62592,999,8120,.17849477E-3,.22539E-3,0
STARLINK-11413 [DTC],2025-008G,2026-06-06T11:14:09.612384,15.70972827,.0001663,42.9983,311.3197,300.3439,59.7264,0,U,62593,999,8114,.14418823E-2,.189911E-2,0
STARLINK-11416 [DTC],2025-008H,2026-06-06T14:00:04.000032,15.87144588,.00125687,42.9890,305.5718,320.2797,172.1680,0,U,62594,999,601,.99851228E-3,.278591E-2,0
STARLINK-11535 [DTC],2025-008J,2026-06-06T14:40:02.082144,15.70850353,.00023929,42.9987,309.7802,216.5139,143.5566,0,U,62595,999,8112,.13574028E-3,.17013E-3,0
STARLINK-11521 [DTC],2025-008L,2026-06-06T13:31:24.807648,15.70861907,.00016006,42.9996,310.2986,263.4823,96.5862,0,U,62597,999,8126,-.31270772E-3,-.40416E-3,0
STARLINK-11258 [DTC],2025-008M,2026-06-06T02:58:08.169024,15.71036659,.0004817,43.0000,313.0210,266.4032,93.6285,0,U,62598,999,8119,.18402E-2,.244861E-2,0
STARLINK-11529 [DTC],2025-008N,2026-06-06T15:18:16.035840,15.70839220,.00021357,42.9996,309.9940,273.1576,86.9047,0,U,62599,999,8128,.29170248E-3,.37149E-3,0
STARLINK-32747,2025-008P,2026-06-06T05:49:40.968192,15.27600849,.00012847,42.9990,138.1502,281.3250,78.7457,0,U,62600,999,7910,.16498837E-3,.4284E-4,0
STARLINK-32767,2025-008Q,2026-06-05T16:24:37.919808,15.27616340,.00015339,43.0008,140.8274,266.8745,93.1931,0,U,62601,999,7908,.59563134E-3,.16183E-3,0
STARLINK-32769,2025-008R,2026-06-06T05:03:26.406720,15.27595274,.00032617,43.0012,137.9021,280.2032,79.8451,0,U,62602,999,7916,.8560394E-3,.23382E-3,0
STARLINK-32778,2025-008S,2026-06-06T06:06:20.954016,15.27598313,.00002975,42.9933,138.2353,252.7670,107.3149,0,U,62603,999,7910,.52443528E-3,.14205E-3,0
STARLINK-32710,2025-008T,2026-06-05T16:04:18.965280,15.27594050,.00011735,43.0041,140.7256,296.4754,63.5978,0,U,62604,999,7902,.66558627E-3,.18106E-3,0
STARLINK-32742,2025-008U,2026-06-05T16:09:50.151168,15.27622050,.00015467,43.0030,140.7532,275.7444,84.3231,0,U,62605,999,7907,.70140884E-3,.19114E-3,0
STARLINK-32783,2025-008V,2026-06-06T05:08:59.344800,15.27596509,.00020202,43.0012,137.9344,262.3522,97.7100,0,U,62606,999,7910,.76047073E-3,.20734E-3,0
STARLINK-32784,2025-008W,2026-06-05T05:14:23.292096,15.45767182,.0016448,42.9935,133.7869,138.0298,222.1824,0,U,62607,999,7912,.15632E-2,.78336E-3,0
BUZZER-1,2025-009A,2026-06-06T11:08:20.239296,15.21560311,.00080605,97.3918,235.9009,24.2901,335.8714,0,U,62609,999,7706,.35179169E-3,.7869E-4,0
EDISON-1,2025-009B,2026-06-06T03:30:49.567392,15.31344194,.00047267,97.4004,239.6780,4.9270,355.2017,0,U,62610,999,7726,.56118544E-3,.16935E-3,0
BALKAN-1,2025-009C,2026-06-06T04:29:27.311424,15.24881831,.00072666,97.3914,236.5613,27.2114,332.9503,0,U,62611,999,7708,.37596974E-3,.9287E-4,0
GESAT GEN1,2025-009D,2026-06-06T11:33:12.478752,15.28424705,.00014325,97.4017,239.5893,79.1791,280.9609,0,U,62612,999,7728,.4031333E-3,.11086E-3,0
FLOCK 4G-8,2025-009E,2026-06-06T03:51:04.021344,15.29534606,.00037627,97.4006,239.2131,17.2220,342.9147,0,U,62613,999,7723,.52692029E-3,.15026E-3,0
TRANSPORTER-12 OBJECT G,2025-009G,2026-06-06T12:32:19.059648,15.25652041,.00063429,97.3940,237.6057,20.8096,339.3399,0,U,62615,999,7717,.33139512E-3,.8367E-4,0
INNOCUBE (TUBSAT-31),2025-009H,2026-06-06T04:54:54.885888,15.26351638,.00061934,97.3899,237.3127,26.2183,333.9368,0,U,62616,999,7714,.38131673E-3,.9845E-4,0
SCOT-1 (SCOT),2025-009J,2026-06-06T12:23:36.445920,15.52925826,.00020141,97.3866,245.0431,317.0445,43.0651,0,U,62617,999,7769,.11659781E-2,.72971E-3,0
AE1D,2025-009K,2026-06-06T12:35:08.568672,15.59388920,.0001592,97.3944,246.9156,308.9434,51.1680,0,U,62618,999,7778,.15474202E-2,.12369E-2,0
IRIS-F3,2025-009L,2026-06-06T12:06:58.570848,15.26922011,.00065768,97.4044,238.4294,15.2995,344.8441,0,U,62619,999,7719,.2674479E-3,.7001E-4,0
TRANSPORTER-12 OBJECT M,2025-009M,2026-06-06T03:36:27.576288,15.59821395,.00024086,97.3913,246.6588,282.0966,78.0020,0,U,62620,999,7773,.16112729E-2,.131047E-2,0
FLOCK 4G-13,2025-009N,2026-06-06T11:00:28.526400,15.43268638,.00020078,97.3961,240.5403,330.6335,29.4800,0,U,62621,999,7734,.2112346E-2,.9488E-3,0
FLOCK 4G-9,2025-009P,2026-06-06T04:55:36.925536,15.27867613,.0004677,97.3955,238.2371,22.8239,337.3207,0,U,62622,999,7718,.44846516E-3,.12138E-3,0
OTTER,2025-009Q,2026-06-06T11:28:27.818400,15.29663203,.00043533,97.4026,239.6731,7.2887,352.8416,0,U,62623,999,7728,.44332412E-3,.12677E-3,0
FLOCK 4G-7,2025-009R,2026-06-06T11:04:16.778784,15.29109254,.00025826,97.3939,238.8406,32.8404,327.2996,0,U,62624,999,7726,.54515807E-3,.15346E-3,0
FLOCK 4G-12,2025-009S,2026-06-06T04:36:37.497024,15.28970458,.000369,97.4019,239.0879,11.8051,348.3275,0,U,62625,999,7722,.55636444E-3,.15598E-3,0
MBZ-SAT,2025-009T,2026-06-06T11:46:40.406880,15.17990433,.00052632,97.3977,236.0092,42.1397,318.0241,0,U,62626,999,7706,.8586326E-5,.109E-5,0
RAY 1.0,2025-009U,2026-06-06T11:49:37.262496,15.20672613,.00075103,97.3984,236.0125,321.9515,38.1189,0,U,62627,999,7705,.18522055E-3,.4002E-4,0
ION SCV-016,2025-009V,2026-06-06T08:12:31.696128,14.50581566,.05909844,97.4304,196.6304,140.1816,224.4341,0,U,62628,999,7397,.73879632E-3,.35226E-3,0
FLOCK 4G-11,2025-009W,2026-06-06T12:10:40.966176,15.29132262,.00027936,97.3922,239.0032,32.3484,327.7927,0,U,62629,999,7728,.54686191E-3,.15405E-3,0
ION SCV-014,2025-009X,2026-06-06T11:23:55.089024,15.05200901,.00052666,97.4859,230.9613,159.2066,200.9376,0,U,62630,999,7637,.16306255E-3,.2267E-4,0
PELICAN-2,2025-009Y,2026-06-05T19:26:06.262944,15.40691773,.00008823,97.2915,247.6866,101.7257,258.4089,0,U,62631,999,7780,.357331E-5,.64E-6,0
SIGI,2025-009Z,2026-06-06T13:29:58.184736,15.24513714,.00031435,97.4001,237.8836,19.0550,341.0805,0,U,62632,999,7718,.32558468E-3,.7939E-4,0
FLOCK 4G-26,2025-009AA,2026-06-06T04:44:35.328768,15.29228276,.00029213,97.4015,239.2408,9.0946,351.0347,0,U,62633,999,7723,.58920272E-3,.16655E-3,0
FLOCK 4G-28,2025-009AB,2026-06-06T11:50:50.502048,15.34651484,.00017337,97.4023,242.0040,33.2376,326.8976,0,U,62634,999,7744,.32026242E-3,.10678E-3,0
GARAI-A,2025-009AC,2026-06-06T11:47:36.120192,15.18889103,.00028289,97.3988,237.4894,42.8430,317.3024,0,U,62635,999,7715,.2003363E-3,.4112E-4,0
FLOCK 4G-20,2025-009AD,2026-06-06T04:50:00.122784,15.51197141,.00013399,97.3867,241.3187,239.3173,120.7948,0,U,62636,999,7741,.24784622E-2,.147309E-2,0
FLOCK 4G-24,2025-009AE,2026-06-06T11:30:55.250496,15.29673873,.00021324,97.4020,239.8013,358.6192,1.5042,0,U,62637,999,7729,.42760387E-3,.12226E-3,0
FLOCK 4G-3,2025-009AG,2026-06-06T11:02:26.975616,15.29138239,.00022896,97.4023,239.5196,12.9787,347.1512,0,U,62639,999,7726,.50485173E-3,.14216E-3,0
NUSAT-45 (UZMASAT-1),2025-009AH,2026-06-06T12:42:25.782048,15.30366719,.00023701,97.3591,238.8340,45.0443,315.0990,0,U,62640,999,7729,.40115344E-3,.11713E-3,0
FLOCK 4G-27,2025-009AJ,2026-06-06T03:37:35.008896,15.29088086,.00020597,97.3932,238.6101,33.5553,326.5817,0,U,62641,999,7721,.53086572E-3,.1493E-3,0
FLOCK 4G-29,2025-009AK,2026-06-06T12:44:52.457280,15.29205295,.00021015,97.4016,239.5502,7.5225,352.6047,0,U,62642,999,7727,.43342454E-3,.12216E-3,0
ANSER LEADER-S,2025-009AM,2026-06-06T12:00:15.936480,15.46031779,.00014332,97.4057,243.9175,22.1118,338.0192,0,U,62644,999,7755,.21670691E-2,.107048E-2,0
FLOCK 4G-22,2025-009AN,2026-06-06T11:32:49.669152,15.29059612,.00017637,97.4004,239.5487,17.9987,342.1315,0,U,62645,999,7728,.50406326E-3,.14159E-3,0
FLOCK 4G-25,2025-009AP,2026-06-06T11:02:47.497344,15.29244037,.00017177,97.4010,239.5905,35.8980,324.2375,0,U,62646,999,7728,.48570015E-3,.13717E-3,0
FLOCK 4G-23,2025-009AQ,2026-06-06T11:07:20.276832,15.31796648,.00002851,97.3929,239.1468,180.3498,179.7744,0,U,62647,999,7728,.17471123E-2,.53881E-3,0
LIME,2025-009AR,2026-06-06T04:15:16.596288,15.30672307,.0002635,97.3950,239.4938,62.8423,297.3086,0,U,62648,999,7728,.52411E-3,.15479E-3,0
